{
  "type": "FeatureCollection",
  "features": [
    {
      "type": "Feature",
      "properties": {
        "norad_id": 33972,
        "name": "COSMOS 2251 DEB",
        "group": "cosmos-2251-debris",
        "lat": -33.506605838617936,
        "lon": 156.37724520683867,
        "alt_km": 688.6644642829124,
        "timestamp": "2025-12-25T09:48:52.682342+00:00",
        "meta_object_name": "COSMOS 2251 DEB",
        "meta_object_id": "1993-036FF",
        "meta_epoch": "2025-12-22T11:54:25.691616",
        "meta_mean_motion": 14.36292058,
        "meta_eccentricity": 0.01238157,
        "meta_inclination": 73.9934,
        "meta_ra_of_asc_node": 172.696,
        "meta_arg_of_pericenter": 338.2339,
        "meta_mean_anomaly": 51.7728,
        "meta_ephemeris_type": 0,
        "meta_classification_type": "U",
        "meta_norad_cat_id": 33972,
        "meta_element_set_no": 999,
        "meta_rev_at_epoch": 87214,
        "meta_bstar": 0.0012268858,
        "meta_mean_motion_dot": 3.888e-05,
        "meta_mean_motion_ddot": 0,
        "tle_line1": "1 33972U 93036FF  25356.49613069  .00003888  00000+0  12269-2 0  9992",
        "tle_line2": "2 33972  73.9934 172.6960 0123815 338.2339  51.7728 14.36292058872145"
      },
      "geometry": {
        "type": "Point",
        "coordinates": [
          156.37724520683867,
          -33.506605838617936
        ]
      }
    },
    {
      "type": "Feature",
      "properties": {
        "norad_id": 33973,
        "name": "COSMOS 2251 DEB",
        "group": "cosmos-2251-debris",
        "lat": 46.03953141515436,
        "lon": -118.06078085053977,
        "alt_km": 755.0176449191622,
        "timestamp": "2025-12-25T09:48:52.682352+00:00",
        "meta_object_name": "COSMOS 2251 DEB",
        "meta_object_id": "1993-036FG",
        "meta_epoch": "2025-12-24T17:09:56.410272",
        "meta_mean_motion": 14.45403322,
        "meta_eccentricity": 0.00473769,
        "meta_inclination": 74.0086,
        "meta_ra_of_asc_node": 80.5336,
        "meta_arg_of_pericenter": 256.7581,
        "meta_mean_anomaly": 226.9237,
        "meta_ephemeris_type": 0,
        "meta_classification_type": "U",
        "meta_norad_cat_id": 33973,
        "meta_element_set_no": 999,
        "meta_rev_at_epoch": 88773,
        "meta_bstar": 0.00014644554,
        "meta_mean_motion_dot": 4.94e-06,
        "meta_mean_motion_ddot": 0,
        "tle_line1": "1 33973U 93036FG  25358.71523623  .00000494  00000+0  14645-3 0  9997",
        "tle_line2": "2 33973  74.0086  80.5336 0047376 256.7581 226.9237 14.45403322887730"
      },
      "geometry": {
        "type": "Point",
        "coordinates": [
          -118.06078085053977,
          46.03953141515436
        ]
      }
    },
    {
      "type": "Feature",
      "properties": {
        "norad_id": 33975,
        "name": "COSMOS 2251 DEB",
        "group": "cosmos-2251-debris",
        "lat": -8.908881741441201,
        "lon": -115.20521655970533,
        "alt_km": 757.0660967458161,
        "timestamp": "2025-12-25T09:48:52.682362+00:00",
        "meta_object_name": "COSMOS 2251 DEB",
        "meta_object_id": "1993-036FJ",
        "meta_epoch": "2025-12-24T10:37:31.630080",
        "meta_mean_motion": 14.00546977,
        "meta_eccentricity": 0.01908754,
        "meta_inclination": 73.8016,
        "meta_ra_of_asc_node": 63.881,
        "meta_arg_of_pericenter": 194.9638,
        "meta_mean_anomaly": 164.5802,
        "meta_ephemeris_type": 0,
        "meta_classification_type": "U",
        "meta_norad_cat_id": 33975,
        "meta_element_set_no": 999,
        "meta_rev_at_epoch": 85993,
        "meta_bstar": 0.00050046433,
        "meta_mean_motion_dot": 8.45e-06,
        "meta_mean_motion_ddot": 0,
        "tle_line1": "1 33975U 93036FJ  25358.44272720  .00000845  00000+0  50046-3 0  9993",
        "tle_line2": "2 33975  73.8016  63.8810 0190875 194.9638 164.5802 14.00546977859933"
      },
      "geometry": {
        "type": "Point",
        "coordinates": [
          -115.20521655970533,
          -8.908881741441201
        ]
      }
    },
    {
      "type": "Feature",
      "properties": {
        "norad_id": 33980,
        "name": "COSMOS 2251 DEB",
        "group": "cosmos-2251-debris",
        "lat": 24.321786539377598,
        "lon": -152.19321907236412,
        "alt_km": 678.220035877629,
        "timestamp": "2025-12-25T09:48:52.682372+00:00",
        "meta_object_name": "COSMOS 2251 DEB",
        "meta_object_id": "1993-036FP",
        "meta_epoch": "2025-12-25T02:39:52.487424",
        "meta_mean_motion": 14.58717372,
        "meta_eccentricity": 0.0027919,
        "meta_inclination": 74.0207,
        "meta_ra_of_asc_node": 35.8157,
        "meta_arg_of_pericenter": 178.7026,
        "meta_mean_anomaly": 212.1104,
        "meta_ephemeris_type": 0,
        "meta_classification_type": "U",
        "meta_norad_cat_id": 33980,
        "meta_element_set_no": 999,
        "meta_rev_at_epoch": 88975,
        "meta_bstar": 0.00059104,
        "meta_mean_motion_dot": 2.744e-05,
        "meta_mean_motion_ddot": 0,
        "tle_line1": "1 33980U 93036FP  25359.11102416  .00002744  00000+0  59104-3 0  9992",
        "tle_line2": "2 33980  74.0207  35.8157 0027919 178.7026 212.1104 14.58717372889756"
      },
      "geometry": {
        "type": "Point",
        "coordinates": [
          -152.19321907236412,
          24.321786539377598
        ]
      }
    },
    {
      "type": "Feature",
      "properties": {
        "norad_id": 33982,
        "name": "COSMOS 2251 DEB",
        "group": "cosmos-2251-debris",
        "lat": 71.59775016771353,
        "lon": 34.93527985281478,
        "alt_km": 661.2609583429121,
        "timestamp": "2025-12-25T09:48:52.682382+00:00",
        "meta_object_name": "COSMOS 2251 DEB",
        "meta_object_id": "1993-036FR",
        "meta_epoch": "2025-12-24T23:50:20.580000",
        "meta_mean_motion": 14.60266747,
        "meta_eccentricity": 0.0075514,
        "meta_inclination": 74.0713,
        "meta_ra_of_asc_node": 336.5898,
        "meta_arg_of_pericenter": 17.6635,
        "meta_mean_anomaly": 38.1055,
        "meta_ephemeris_type": 0,
        "meta_classification_type": "U",
        "meta_norad_cat_id": 33982,
        "meta_element_set_no": 999,
        "meta_rev_at_epoch": 89338,
        "meta_bstar": 0.00060606,
        "meta_mean_motion_dot": 3.015e-05,
        "meta_mean_motion_ddot": 0,
        "tle_line1": "1 33982U 93036FR  25358.99329375  .00003015  00000+0  60606-3 0  9995",
        "tle_line2": "2 33982  74.0713 336.5898 0075514  17.6635  38.1055 14.60266747893387"
      },
      "geometry": {
        "type": "Point",
        "coordinates": [
          34.93527985281478,
          71.59775016771353
        ]
      }
    },
    {
      "type": "Feature",
      "properties": {
        "norad_id": 33983,
        "name": "COSMOS 2251 DEB",
        "group": "cosmos-2251-debris",
        "lat": -58.71712441323303,
        "lon": 95.17236558574896,
        "alt_km": 725.4667275380616,
        "timestamp": "2025-12-25T09:48:52.682392+00:00",
        "meta_object_name": "COSMOS 2251 DEB",
        "meta_object_id": "1993-036FS",
        "meta_epoch": "2025-12-25T02:39:29.855808",
        "meta_mean_motion": 14.5072127,
        "meta_eccentricity": 0.0021119,
        "meta_inclination": 74.0505,
        "meta_ra_of_asc_node": 123.81,
        "meta_arg_of_pericenter": 225.6515,
        "meta_mean_anomaly": 314.8003,
        "meta_ephemeris_type": 0,
        "meta_classification_type": "U",
        "meta_norad_cat_id": 33983,
        "meta_element_set_no": 999,
        "meta_rev_at_epoch": 88808,
        "meta_bstar": 0.00062266,
        "meta_mean_motion_dot": 2.428e-05,
        "meta_mean_motion_ddot": 0,
        "tle_line1": "1 33983U 93036FS  25359.11076222  .00002428  00000+0  62266-3 0  9992",
        "tle_line2": "2 33983  74.0505 123.8100 0021119 225.6515 314.8003 14.50721270888084"
      },
      "geometry": {
        "type": "Point",
        "coordinates": [
          95.17236558574896,
          -58.71712441323303
        ]
      }
    },
    {
      "type": "Feature",
      "properties": {
        "norad_id": 33984,
        "name": "COSMOS 2251 DEB",
        "group": "cosmos-2251-debris",
        "lat": 37.219618021095094,
        "lon": -24.783580557171224,
        "alt_km": 676.7010173574154,
        "timestamp": "2025-12-25T09:48:52.682402+00:00",
        "meta_object_name": "COSMOS 2251 DEB",
        "meta_object_id": "1993-036FT",
        "meta_epoch": "2025-12-25T00:05:49.139808",
        "meta_mean_motion": 14.66466726,
        "meta_eccentricity": 0.0022451,
        "meta_inclination": 74.0098,
        "meta_ra_of_asc_node": 323.4175,
        "meta_arg_of_pericenter": 157.7912,
        "meta_mean_anomaly": 264.8039,
        "meta_ephemeris_type": 0,
        "meta_classification_type": "U",
        "meta_norad_cat_id": 33984,
        "meta_element_set_no": 999,
        "meta_rev_at_epoch": 89246,
        "meta_bstar": 0.00091239,
        "meta_mean_motion_dot": 5.043e-05,
        "meta_mean_motion_ddot": 0,
        "tle_line1": "1 33984U 93036FT  25359.00404097  .00005043  00000+0  91239-3 0  9994",
        "tle_line2": "2 33984  74.0098 323.4175 0022451 157.7912 264.8039 14.66466726892467"
      },
      "geometry": {
        "type": "Point",
        "coordinates": [
          -24.783580557171224,
          37.219618021095094
        ]
      }
    }
  ]
}